*******************************************************************************
Ephemeris / WWW_USER Fri Mar  7 10:35:38 2025 Pasadena, USA      / Horizons    
*******************************************************************************
Target body name: (2017 SN16)                     {source: JPL#20}
Center body name: Earth (399)                     {source: DE441}
Center-site name: Mauna Kea
*******************************************************************************
Start time      : A.D. 2018-Sep-26 04:24:00.0000 UT      
Stop  time      : A.D. 2018-Sep-26 16:02:00.0000 UT      
Step-size       : 1 minutes
*******************************************************************************
Target pole/equ : undefined
Target radii    : undefined                                                    
Center geodetic : 204.5278, 19.8260847, 4.21024   {E-lon(deg),Lat(deg),Alt(km)}
Center cylindric: 204.5278, 6006.35451, 2151.0229 {E-lon(deg),Dxy(km),Dz(km)}
Center pole/equ : ITRF93                          {East-longitude positive}
Center radii    : 6378.137, 6378.137, 6356.752 km {Equator_a, b, pole_c}       
Target primary  : Sun
Vis. interferer : MOON (R_eq= 1737.400) km        {source: DE441}
Rel. light bend : Sun                             {source: DE441}
Rel. lght bnd GM: 1.3271E+11 km^3/s^2                                          
Small-body perts: Yes                             {source: SB441-N16}
Atmos refraction: NO (AIRLESS)
RA format       : HMS
Time format     : CAL 
Calendar mode   : Mixed Julian/Gregorian
RTS-only print  : NO       
EOP file        : eop.250306.p250602                                           
EOP coverage    : DATA-BASED 1962-JAN-20 TO 2025-MAR-06. PREDICTS-> 2025-JUN-01
Units conversion: 1 au= 149597870.700 km, c= 299792.458 km/s, 1 day= 86400.0 s 
Table cut-offs 1: Elevation (-90.0deg=NO ),Airmass (>38.000=NO), Daylight (YES)
Table cut-offs 2: Solar elongation (  0.0,180.0=NO ),Local Hour Angle( 0.0=NO )
Table cut-offs 3: RA/DEC angular rate (     0.0=NO )                           
*******************************************************************************
Initial IAU76/J2000 heliocentric ecliptic osculating elements (au, days, deg.):
  EPOCH=  2458305.5 ! 2018-Jul-06.00 (TDB)         Residual RMS= .23751        
   EC= .1454884975659386   QR= .8682464985612274   TP= 2458145.5722438502      
   OM= 2.759719470837934   W=  137.1017088998531   IN= 13.38264682844635       
  Equivalent ICRF heliocentric cartesian coordinates (au, au/d):
   X= 5.756755401261899E-01  Y=-7.953424559592890E-01  Z=-6.031561894536019E-01
  VX= 1.332076113263395E-02 VY= 5.454663564585547E-03 VZ= 3.896229736425836E-03
Asteroid physical parameters (km, seconds, rotational period in hours):        
   GM= n.a.                RAD= n.a.               ROTPER= n.a.                
   H= 23.34                G= .150                 B-V= n.a.                   
                           ALBEDO= n.a.            STYP= n.a.                  
*******************************************************************************
 Date__(UT)__HR:MN     R.A._________(ICRF)_________DEC
******************************************************
$$SOE
 2018-Sep-26 14:39  m  23 10 23.205024 -08 47 56.57316
 2018-Sep-26 14:40  m  23 10 22.917145 -08 47 53.67694
 2018-Sep-26 14:41  m  23 10 22.629357 -08 47 50.78066
 2018-Sep-26 14:42  m  23 10 22.341660 -08 47 47.88433
 2018-Sep-26 14:43  m  23 10 22.054054 -08 47 44.98794
 2018-Sep-26 14:44  m  23 10 21.766540 -08 47 42.09150
 2018-Sep-26 14:45  m  23 10 21.479116 -08 47 39.19501
 2018-Sep-26 14:46  m  23 10 21.191784 -08 47 36.29846
 2018-Sep-26 14:47  m  23 10 20.904542 -08 47 33.40187
 2018-Sep-26 14:48  m  23 10 20.617393 -08 47 30.50522
 2018-Sep-26 14:49  m  23 10 20.330334 -08 47 27.60853
 2018-Sep-26 14:50  m  23 10 20.043367 -08 47 24.71179
 2018-Sep-26 14:51  m  23 10 19.756491 -08 47 21.81500
 2018-Sep-26 14:52  m  23 10 19.469706 -08 47 18.91817
 2018-Sep-26 14:53  m  23 10 19.183013 -08 47 16.02129
 2018-Sep-26 14:54  m  23 10 18.896412 -08 47 13.12437
 2018-Sep-26 14:55  m  23 10 18.609902 -08 47 10.22740
 2018-Sep-26 14:56  m  23 10 18.323483 -08 47 07.33039
 2018-Sep-26 14:57  m  23 10 18.037156 -08 47 04.43334
 2018-Sep-26 14:58  m  23 10 17.750921 -08 47 01.53625
 2018-Sep-26 14:59 Am  23 10 17.464778 -08 46 58.63912
 2018-Sep-26 15:00 Am  23 10 17.178726 -08 46 55.74195
 2018-Sep-26 15:01 Am  23 10 16.892765 -08 46 52.84475
 2018-Sep-26 15:02 Am  23 10 16.606897 -08 46 49.94750
 2018-Sep-26 15:03 Am  23 10 16.321120 -08 46 47.05022
 2018-Sep-26 15:04 Am  23 10 16.035435 -08 46 44.15291
 2018-Sep-26 15:05 Am  23 10 15.749841 -08 46 41.25556
 2018-Sep-26 15:06 Am  23 10 15.464340 -08 46 38.35817
 2018-Sep-26 15:07 Am  23 10 15.178930 -08 46 35.46076
 2018-Sep-26 15:08 Am  23 10 14.893612 -08 46 32.56331
 2018-Sep-26 15:09 Am  23 10 14.608386 -08 46 29.66583
 2018-Sep-26 15:10 Am  23 10 14.323251 -08 46 26.76833
 2018-Sep-26 15:11 As  23 10 14.038208 -08 46 23.87079
 2018-Sep-26 15:12 Am  23 10 13.753257 -08 46 20.97323
 2018-Sep-26 15:13 Am  23 10 13.468398 -08 46 18.07564
 2018-Sep-26 15:14 Am  23 10 13.183631 -08 46 15.17802
 2018-Sep-26 15:15 Am  23 10 12.898956 -08 46 12.28037
 2018-Sep-26 15:16 Am  23 10 12.614372 -08 46 09.38271
 2018-Sep-26 15:17 Am  23 10 12.329880 -08 46 06.48502
 2018-Sep-26 15:18 Am  23 10 12.045480 -08 46 03.58730
 2018-Sep-26 15:19 Am  23 10 11.761171 -08 46 00.68957
 2018-Sep-26 15:20 Am  23 10 11.476954 -08 45 57.79181
 2018-Sep-26 15:21 Am  23 10 11.192829 -08 45 54.89404
 2018-Sep-26 15:22 Am  23 10 10.908796 -08 45 51.99624
 2018-Sep-26 15:23 Am  23 10 10.624855 -08 45 49.09843
 2018-Sep-26 15:24 Am  23 10 10.341005 -08 45 46.20060
 2018-Sep-26 15:25 Nm  23 10 10.057247 -08 45 43.30275
 2018-Sep-26 15:26 Nm  23 10 09.773580 -08 45 40.40489
 2018-Sep-26 15:27 Nm  23 10 09.490005 -08 45 37.50701
 2018-Sep-26 15:28 Nm  23 10 09.206522 -08 45 34.60912
 2018-Sep-26 15:29 Nm  23 10 08.923130 -08 45 31.71122
 2018-Sep-26 15:30 Nm  23 10 08.639830 -08 45 28.81330
 2018-Sep-26 15:31 Nm  23 10 08.356621 -08 45 25.91537
 2018-Sep-26 15:32 Nm  23 10 08.073504 -08 45 23.01744
 2018-Sep-26 15:33 Nm  23 10 07.790478 -08 45 20.11949
 2018-Sep-26 15:34 Nm  23 10 07.507543 -08 45 17.22154
 2018-Sep-26 15:35 Nm  23 10 07.224700 -08 45 14.32357
 2018-Sep-26 15:36 Nm  23 10 06.941949 -08 45 11.42561
 2018-Sep-26 15:37 Nm  23 10 06.659288 -08 45 08.52763
 2018-Sep-26 15:38 Nm  23 10 06.376719 -08 45 05.62965
 2018-Sep-26 15:39 Nm  23 10 06.094241 -08 45 02.73167
 2018-Sep-26 15:40 Nm  23 10 05.811854 -08 44 59.83368
 2018-Sep-26 15:41 Nm  23 10 05.529558 -08 44 56.93570
 2018-Sep-26 15:42 Nm  23 10 05.247353 -08 44 54.03771
 2018-Sep-26 15:43 Nm  23 10 04.965239 -08 44 51.13972
 2018-Sep-26 15:44 Nm  23 10 04.683216 -08 44 48.24173
 2018-Sep-26 15:45 Nm  23 10 04.401284 -08 44 45.34374
 2018-Sep-26 15:46 Nm  23 10 04.119443 -08 44 42.44575
 2018-Sep-26 15:47 Nm  23 10 03.837693 -08 44 39.54777
 2018-Sep-26 15:48 Nm  23 10 03.556033 -08 44 36.64979
 2018-Sep-26 15:49 Nm  23 10 03.274464 -08 44 33.75182
 2018-Sep-26 15:50 Cm  23 10 02.992985 -08 44 30.85385
 2018-Sep-26 15:51 Cm  23 10 02.711597 -08 44 27.95589
 2018-Sep-26 15:52 Cm  23 10 02.430300 -08 44 25.05793
 2018-Sep-26 15:53 Cm  23 10 02.149093 -08 44 22.15999
 2018-Sep-26 15:54 Cm  23 10 01.867976 -08 44 19.26205
 2018-Sep-26 15:55 Cm  23 10 01.586949 -08 44 16.36412
 2018-Sep-26 15:56 Cm  23 10 01.306013 -08 44 13.46620
 2018-Sep-26 15:57 Cm  23 10 01.025166 -08 44 10.56830
 2018-Sep-26 15:58 Cm  23 10 00.744410 -08 44 07.67041
 2018-Sep-26 15:59 Cm  23 10 00.463743 -08 44 04.77253
 2018-Sep-26 16:00 Cm  23 10 00.183167 -08 44 01.87467
 2018-Sep-26 16:01 Cm  23 09 59.902680 -08 43 58.97682
 2018-Sep-26 16:02 Cm  23 09 59.622282 -08 43 56.07899
